{
  "type": "FeatureCollection",
  "features": [
    {
      "type": "Feature",
      "properties": {
        "norad_id": 44333,
        "name": "AT&T T-16",
        "group": "intelsat",
        "lat": -0.021694627187336418,
        "lon": -33.322946162852325,
        "alt_km": 35788.17819484415,
        "timestamp": "2025-12-04T23:34:05.398808+00:00",
        "meta_object_name": "AT&T T-16",
        "meta_object_id": "2019-034A",
        "meta_epoch": "2025-12-04T08:38:38.724288",
        "meta_mean_motion": 1.0026863,
        "meta_eccentricity": 3.23e-05,
        "meta_inclination": 0.0351,
        "meta_ra_of_asc_node": 77.2721,
        "meta_arg_of_pericenter": 97.2425,
        "meta_mean_anomaly": 287.7127,
        "meta_ephemeris_type": 0,
        "meta_classification_type": "U",
        "meta_norad_cat_id": 44333,
        "meta_element_set_no": 999,
        "meta_rev_at_epoch": 2368,
        "meta_bstar": 0,
        "meta_mean_motion_dot": -1e-06,
        "meta_mean_motion_ddot": 0,
        "tle_line1": "1 44333U 19034A   25338.36017042 -.00000100  00000+0  00000+0 0  9998",
        "tle_line2": "2 44333   0.0351  77.2721 0000323  97.2425 287.7127  1.00268630 23680"
      },
      "geometry": {
        "type": "Point",
        "coordinates": [
          -33.322946162852325,
          -0.021694627187336418
        ]
      }
    },
    {
      "type": "Feature",
      "properties": {
        "norad_id": 44476,
        "name": "INTELSAT 39 (IS-39)",
        "group": "intelsat",
        "lat": 0.012014325939314938,
        "lon": 129.49761593519688,
        "alt_km": 35783.311905099974,
        "timestamp": "2025-12-04T23:34:05.398819+00:00",
        "meta_object_name": "INTELSAT 39 (IS-39)",
        "meta_object_id": "2019-049B",
        "meta_epoch": "2025-12-04T14:01:17.914368",
        "meta_mean_motion": 1.00272424,
        "meta_eccentricity": 6.34e-05,
        "meta_inclination": 0.0165,
        "meta_ra_of_asc_node": 325.9133,
        "meta_arg_of_pericenter": 179.1355,
        "meta_mean_anomaly": 200.879,
        "meta_ephemeris_type": 0,
        "meta_classification_type": "U",
        "meta_norad_cat_id": 44476,
        "meta_element_set_no": 999,
        "meta_rev_at_epoch": 2317,
        "meta_bstar": 0,
        "meta_mean_motion_dot": 4.8e-07,
        "meta_mean_motion_ddot": 0,
        "tle_line1": "1 44476U 19049B   25338.58423512  .00000048  00000+0  00000+0 0  9999",
        "tle_line2": "2 44476   0.0165 325.9133 0000634 179.1355 200.8790  1.00272424 23170"
      },
      "geometry": {
        "type": "Point",
        "coordinates": [
          129.49761593519688,
          0.012014325939314938
        ]
      }
    },
    {
      "type": "Feature",
      "properties": {
        "norad_id": 46114,
        "name": "GALAXY 30 (G-30)",
        "group": "intelsat",
        "lat": -0.0177621754567925,
        "lon": -57.423590802631026,
        "alt_km": 35780.21710001388,
        "timestamp": "2025-12-04T23:34:05.398830+00:00",
        "meta_object_name": "GALAXY 30 (G-30)",
        "meta_object_id": "2020-056C",
        "meta_epoch": "2025-12-04T14:10:38.722944",
        "meta_mean_motion": 1.00270006,
        "meta_eccentricity": 0.0002489,
        "meta_inclination": 0.0158,
        "meta_ra_of_asc_node": 328.6937,
        "meta_arg_of_pericenter": 280.7734,
        "meta_mean_anomaly": 271.8612,
        "meta_ephemeris_type": 0,
        "meta_classification_type": "U",
        "meta_norad_cat_id": 46114,
        "meta_element_set_no": 999,
        "meta_rev_at_epoch": 1934,
        "meta_bstar": 0,
        "meta_mean_motion_dot": 5.1e-07,
        "meta_mean_motion_ddot": 0,
        "tle_line1": "1 46114U 20056C   25338.59072596  .00000051  00000+0  00000+0 0  9997",
        "tle_line2": "2 46114   0.0158 328.6937 0002489 280.7734 271.8612  1.00270006 19344"
      },
      "geometry": {
        "type": "Point",
        "coordinates": [
          -57.423590802631026,
          -0.0177621754567925
        ]
      }
    },
    {
      "type": "Feature",
      "properties": {
        "norad_id": 54026,
        "name": "GALAXY 33 (G-33)",
        "group": "intelsat",
        "lat": -0.027592640421488995,
        "lon": -65.41247886424576,
        "alt_km": 35779.58561720119,
        "timestamp": "2025-12-04T23:34:05.398842+00:00",
        "meta_object_name": "GALAXY 33 (G-33)",
        "meta_object_id": "2022-128A",
        "meta_epoch": "2025-12-04T04:32:00.541824",
        "meta_mean_motion": 1.00272957,
        "meta_eccentricity": 0.0002014,
        "meta_inclination": 0.0134,
        "meta_ra_of_asc_node": 359.762,
        "meta_arg_of_pericenter": 250.375,
        "meta_mean_anomaly": 118.1476,
        "meta_ephemeris_type": 0,
        "meta_classification_type": "U",
        "meta_norad_cat_id": 54026,
        "meta_element_set_no": 999,
        "meta_rev_at_epoch": 1178,
        "meta_bstar": 0,
        "meta_mean_motion_dot": 9.5e-07,
        "meta_mean_motion_ddot": 0,
        "tle_line1": "1 54026U 22128A   25338.18889516  .00000095  00000+0  00000+0 0  9991",
        "tle_line2": "2 54026   0.0134 359.7620 0002014 250.3750 118.1476  1.00272957 11786"
      },
      "geometry": {
        "type": "Point",
        "coordinates": [
          -65.41247886424576,
          -0.027592640421488995
        ]
      }
    },
    {
      "type": "Feature",
      "properties": {
        "norad_id": 54027,
        "name": "GALAXY 34 (G-34)",
        "group": "intelsat",
        "lat": -0.023307150180692317,
        "lon": -61.379321766353094,
        "alt_km": 35783.63690528692,
        "timestamp": "2025-12-04T23:34:05.398854+00:00",
        "meta_object_name": "GALAXY 34 (G-34)",
        "meta_object_id": "2022-128B",
        "meta_epoch": "2025-12-04T14:10:38.722944",
        "meta_mean_motion": 1.00269584,
        "meta_eccentricity": 0.0001285,
        "meta_inclination": 0.0223,
        "meta_ra_of_asc_node": 328.1402,
        "meta_arg_of_pericenter": 274.2387,
        "meta_mean_anomaly": 275.0049,
        "meta_ephemeris_type": 0,
        "meta_classification_type": "U",
        "meta_norad_cat_id": 54027,
        "meta_element_set_no": 999,
        "meta_rev_at_epoch": 1196,
        "meta_bstar": 0,
        "meta_mean_motion_dot": 0,
        "meta_mean_motion_ddot": 0,
        "tle_line1": "1 54027U 22128B   25338.59072596  .00000000  00000+0  00000+0 0  9995",
        "tle_line2": "2 54027   0.0223 328.1402 0001285 274.2387 275.0049  1.00269584 11965"
      },
      "geometry": {
        "type": "Point",
        "coordinates": [
          -61.379321766353094,
          -0.023307150180692317
        ]
      }
    },
    {
      "type": "Feature",
      "properties": {
        "norad_id": 54243,
        "name": "GALAXY 31 (G-31)",
        "group": "intelsat",
        "lat": -0.021452754746939796,
        "lon": -53.433031457085065,
        "alt_km": 35779.85107750216,
        "timestamp": "2025-12-04T23:34:05.398865+00:00",
        "meta_object_name": "GALAXY 31 (G-31)",
        "meta_object_id": "2022-153A",
        "meta_epoch": "2025-12-04T14:02:38.764032",
        "meta_mean_motion": 1.00270474,
        "meta_eccentricity": 0.0002012,
        "meta_inclination": 0.0155,
        "meta_ra_of_asc_node": 30.9903,
        "meta_arg_of_pericenter": 236.2733,
        "meta_mean_anomaly": 256.0574,
        "meta_ephemeris_type": 0,
        "meta_classification_type": "U",
        "meta_norad_cat_id": 54243,
        "meta_element_set_no": 999,
        "meta_rev_at_epoch": 518,
        "meta_bstar": 0,
        "meta_mean_motion_dot": 2.8e-07,
        "meta_mean_motion_ddot": 0,
        "tle_line1": "1 54243U 22153A   25338.58517088  .00000028  00000+0  00000+0 0  9992",
        "tle_line2": "2 54243   0.0155  30.9903 0002012 236.2733 256.0574  1.00270474  5184"
      },
      "geometry": {
        "type": "Point",
        "coordinates": [
          -53.433031457085065,
          -0.021452754746939796
        ]
      }
    },
    {
      "type": "Feature",
      "properties": {
        "norad_id": 54244,
        "name": "GALAXY 32 (G-32)",
        "group": "intelsat",
        "lat": 0.0033214158788933087,
        "lon": -23.409596557184106,
        "alt_km": 35776.20243691302,
        "timestamp": "2025-12-04T23:34:05.398877+00:00",
        "meta_object_name": "GALAXY 32 (G-32)",
        "meta_object_id": "2022-153B",
        "meta_epoch": "2025-12-04T06:26:43.018944",
        "meta_mean_motion": 1.00276972,
        "meta_eccentricity": 0.0002645,
        "meta_inclination": 0.0105,
        "meta_ra_of_asc_node": 335.682,
        "meta_arg_of_pericenter": 320.5461,
        "meta_mean_anomaly": 142.802,
        "meta_ephemeris_type": 0,
        "meta_classification_type": "U",
        "meta_norad_cat_id": 54244,
        "meta_element_set_no": 999,
        "meta_rev_at_epoch": 1119,
        "meta_bstar": 0,
        "meta_mean_motion_dot": -1.59e-06,
        "meta_mean_motion_ddot": 0,
        "tle_line1": "1 54244U 22153B   25338.26855346 -.00000159  00000+0  00000+0 0  9996",
        "tle_line2": "2 54244   0.0105 335.6820 0002645 320.5461 142.8020  1.00276972 11195"
      },
      "geometry": {
        "type": "Point",
        "coordinates": [
          -23.409596557184106,
          0.0033214158788933087
        ]
      }
    }
  ]
}